$$SOE
2460154.500000000, A.D. 2023-Jul-29 00:00:00.0000, -2.481514630578157E+08, 4.164224331997786E+08, -7.290599630467546E+07,
2460161.500000000, A.D. 2023-Aug-05 00:00:00.0000, -2.563681475912405E+08, 4.110883381456990E+08, -7.396565147086233E+07,
2460168.500000000, A.D. 2023-Aug-12 00:00:00.0000, -2.644791362827009E+08, 4.055846898763310E+08, -7.499479860611197E+07,
2460175.500000000, A.D. 2023-Aug-19 00:00:00.0000, -2.724810072023006E+08, 3.999136343438406E+08, -7.599299060215035E+07,
2460182.500000000, A.D. 2023-Aug-26 00:00:00.0000, -2.803703755031761E+08, 3.940773854311538E+08, -7.695979176128359E+07,
2460189.500000000, A.D. 2023-Sep-02 00:00:00.0000, -2.881438947246715E+08, 3.880782244243769E+08, -7.789477798044387E+07,
2460196.500000000, A.D. 2023-Sep-09 00:00:00.0000, -2.957982580809304E+08, 3.819184993508815E+08, -7.879753694479872E+07,
2460203.500000000, A.D. 2023-Sep-16 00:00:00.0000, -3.033301995662178E+08, 3.756006241246032E+08, -7.966766835094783E+07,
2460210.500000000, A.D. 2023-Sep-23 00:00:00.0000, -3.107364944603462E+08, 3.691270777847686E+08, -8.050478417425692E+07,
2460217.500000000, A.D. 2023-Sep-30 00:00:00.0000, -3.180139595739866E+08, 3.625004050183132E+08, -8.130850885177267E+07,
2460224.500000000, A.D. 2023-Oct-07 00:00:00.0000, -3.251594555880839E+08, 3.557232174236580E+08, -8.207847920944378E+07,
2460231.500000000, A.D. 2023-Oct-14 00:00:00.0000, -3.321698904463047E+08, 3.487981922030529E+08, -8.281434449961415E+07,
2460238.500000000, A.D. 2023-Oct-21 00:00:00.0000, -3.390422205704547E+08, 3.417280698843150E+08, -8.351576671289887E+07,
2460245.500000000, A.D. 2023-Oct-28 00:00:00.0000, -3.457734513242124E+08, 3.345156533309904E+08, -8.418242084887013E+07,
2460252.500000000, A.D. 2023-Nov-04 00:00:00.0000, -3.523606379759288E+08, 3.271638072713339E+08, -8.481399509419033E+07,
2460259.500000000, A.D. 2023-Nov-11 00:00:00.0000, -3.588008869823983E+08, 3.196754577466176E+08, -8.541019097339562E+07,
2460266.500000000, A.D. 2023-Nov-18 00:00:00.0000, -3.650913573733808E+08, 3.120535914143525E+08, -8.597072349740207E+07,
2460273.500000000, A.D. 2023-Nov-25 00:00:00.0000, -3.712292621631847E+08, 3.043012547288473E+08, -8.649532131422275E+07,
2460280.500000000, A.D. 2023-Dec-02 00:00:00.0000, -3.772118697598836E+08, 2.964215529876362E+08, -8.698372686491591E+07,
2460287.500000000, A.D. 2023-Dec-09 00:00:00.0000, -3.830365052927787E+08, 2.884176491841338E+08, -8.743569655602188E+07,
2460294.500000000, A.D. 2023-Dec-16 00:00:00.0000, -3.887005515691162E+08, 2.802927626777007E+08, -8.785100097302456E+07,
2460301.500000000, A.D. 2023-Dec-23 00:00:00.0000, -3.942014493109450E+08, 2.720501683667433E+08, -8.822942511001606E+07,
2460308.500000000, A.D. 2023-Dec-30 00:00:00.0000, -3.995366980131502E+08, 2.636931974127088E+08, -8.857076840701067E+07,
2460315.500000000, A.D. 2024-Jan-06 00:00:00.0000, -4.047038591967878E+08, 2.552252371547110E+08, -8.887484462630363E+07,
2460322.500000000, A.D. 2024-Jan-13 00:00:00.0000, -4.097005588846171E+08, 2.466497284092038E+08, -8.914148200720520E+07,
2460329.500000000, A.D. 2024-Jan-20 00:00:00.0000, -4.145244880737041E+08, 2.379701632388342E+08, -8.937052355910099E+07,
2460336.500000000, A.D. 2024-Jan-27 00:00:00.0000, -4.191734032339150E+08, 2.291900838423055E+08, -8.956182725387797E+07,
2460343.500000000, A.D. 2024-Feb-03 00:00:00.0000, -4.236451272605134E+08, 2.203130816174581E+08, -8.971526615654299E+07,
2460350.500000000, A.D. 2024-Feb-10 00:00:00.0000, -4.279375506021520E+08, 2.113427961069272E+08, -8.983072854327135E+07,
2460357.500000000, A.D. 2024-Feb-17 00:00:00.0000, -4.320486324239113E+08, 2.022829138340869E+08, -8.990811801862453E+07,
2460364.500000000, A.D. 2024-Feb-24 00:00:00.0000, -4.359764017679137E+08, 1.931371670435464E+08, -8.994735363362512E+07,
2460371.500000000, A.D. 2024-Mar-02 00:00:00.0000, -4.397189586807737E+08, 1.839093323130278E+08, -8.994837000963023E+07,
2460378.500000000, A.D. 2024-Mar-09 00:00:00.0000, -4.432744751678274E+08, 1.746032289730365E+08, -8.991111748548970E+07,
2460385.500000000, A.D. 2024-Mar-16 00:00:00.0000, -4.466411955777374E+08, 1.652227175307960E+08, -8.983556230778205E+07,
2460392.500000000, A.D. 2024-Mar-23 00:00:00.0000, -4.498174365202058E+08, 1.557716992065917E+08, -8.972168676376034E+07,
2460399.500000000, A.D. 2024-Mar-30 00:00:00.0000, -4.528015885580079E+08, 1.462541165549996E+08, -8.956948905381523E+07,
2460406.500000000, A.D. 2024-Apr-06 00:00:00.0000, -4.555921194180135E+08, 1.366739518039495E+08, -8.937898320276220E+07,
2460413.500000000, A.D. 2024-Apr-13 00:00:00.0000, -4.581875751687895E+08, 1.270352237492098E+08, -8.915019926716360E+07,
2460420.500000000, A.D. 2024-Apr-20 00:00:00.0000, -4.605865803146770E+08, 1.173419858804873E+08, -8.888318353182954E+07,
2460427.500000000, A.D. 2024-Apr-27 00:00:00.0000, -4.627878383228339E+08, 1.075983251770477E+08, -8.857799860217801E+07,
2460434.500000000, A.D. 2024-May-04 00:00:00.0000, -4.647901324952238E+08, 9.780836086996472E+07, -8.823472345821941E+07,
2460441.500000000, A.D. 2024-May-11 00:00:00.0000, -4.665923269462779E+08, 8.797624307002646E+07, -8.785345350017491E+07,
2460448.500000000, A.D. 2024-May-18 00:00:00.0000, -4.681933676029194E+08, 7.810615128350022E+07, -8.743430059105021E+07,
2460455.500000000, A.D. 2024-May-25 00:00:00.0000, -4.695922832009150E+08, 6.820229280906209E+07, -8.697739309853289E+07,
2460462.500000000, A.D. 2024-Jun-01 00:00:00.0000, -4.707881862164745E+08, 5.826890095888325E+07, -8.648287594591907E+07,
2460469.500000000, A.D. 2024-Jun-08 00:00:00.0000, -4.717802734855076E+08, 4.831023308137030E+07, -8.595091069604613E+07,
2460476.500000000, A.D. 2024-Jun-15 00:00:00.0000, -4.725678261096459E+08, 3.833056893105683E+07, -8.538167565977566E+07,
2460483.500000000, A.D. 2024-Jun-22 00:00:00.0000, -4.731502096528531E+08, 2.833421056088744E+07, -8.477536584025010E+07,
2460490.500000000, A.D. 2024-Jun-29 00:00:00.0000, -4.735268767498125E+08, 1.832548191596351E+07, -8.413219266700572E+07,
2460497.500000000, A.D. 2024-Jul-06 00:00:00.0000, -4.736973694814558E+08, 8.308725658485305E+06, -8.345238396469960E+07,
2460504.500000000, A.D. 2024-Jul-13 00:00:00.0000, -4.736613195670033E+08, -1.711699950466119E+06, -8.273618410397482E+07,
2460511.500000000, A.D. 2024-Jul-20 00:00:00.0000, -4.734184483558708E+08, -1.173142296327711E+07, -8.198385405772397E+07,
2460518.500000000, A.D. 2024-Jul-27 00:00:00.0000, -4.729685672745466E+08, -2.174605941181123E+07, -8.119567138097861E+07,
2460525.500000000, A.D. 2024-Aug-03 00:00:00.0000, -4.723115784552021E+08, -3.175121510102278E+07, -8.037193017035389E+07,
2460532.500000000, A.D. 2024-Aug-10 00:00:00.0000, -4.714474753790727E+08, -4.174248753283395E+07, -7.951294101849608E+07,
2460539.500000000, A.D. 2024-Aug-17 00:00:00.0000, -4.703763434850478E+08, -5.171546793686345E+07, -7.861903096558829E+07,
2460546.500000000, A.D. 2024-Aug-24 00:00:00.0000, -4.690983607129827E+08, -6.166574342924168E+07, -7.769054345170787E+07,
2460553.500000000, A.D. 2024-Aug-31 00:00:00.0000, -4.676137978638636E+08, -7.158889936073069E+07, -7.672783828537692E+07,
2460560.500000000, A.D. 2024-Sep-07 00:00:00.0000, -4.659230184100294E+08, -8.148052172779378E+07, -7.573129165169579E+07,
2460567.500000000, A.D. 2024-Sep-14 00:00:00.0000, -4.640264776696581E+08, -9.133619865042913E+07, -7.470129608700529E+07,
2460574.500000000, A.D. 2024-Sep-21 00:00:00.0000, -4.619247233740743E+08, -1.011515205035271E+08, -7.363826020088017E+07,
2460581.500000000, A.D. 2024-Sep-28 00:00:00.0000, -4.596183981159129E+08, -1.109220819285673E+08, -7.254260836527987E+07,
2460588.500000000, A.D. 2024-Oct-05 00:00:00.0000, -4.571082400091854E+08, -1.206434857220355E+08, -7.141478070783220E+07,
2460595.500000000, A.D. 2024-Oct-12 00:00:00.0000, -4.543950819205071E+08, -1.303113456176675E+08, -7.025523313222979E+07,
2460602.500000000, A.D. 2024-Oct-19 00:00:00.0000, -4.514798510197433E+08, -1.399212882315682E+08, -6.906443722657573E+07,
2460609.500000000, A.D. 2024-Oct-26 00:00:00.0000, -4.483635686806325E+08, -1.494689549708044E+08, -6.784288012196782E+07,
2460616.500000000, A.D. 2024-Nov-02 00:00:00.0000, -4.450473504731804E+08, -1.589500040528609E+08, -6.659106433710388E+07,
2460623.500000000, A.D. 2024-Nov-09 00:00:00.0000, -4.415324061504302E+08, -1.683601126137126E+08, -6.530950761604794E+07,
2460630.500000000, A.D. 2024-Nov-16 00:00:00.0000, -4.378200396026458E+08, -1.776949789024825E+08, -6.399874276134878E+07,
2460637.500000000, A.D. 2024-Nov-23 00:00:00.0000, -4.339116487308025E+08, -1.869503246108344E+08, -6.265931747069307E+07,
2460644.500000000, A.D. 2024-Nov-30 00:00:00.0000, -4.298087250299773E+08, -1.961218973780085E+08, -6.129179419949225E+07,
2460651.500000000, A.D. 2024-Dec-07 00:00:00.0000, -4.255128524620948E+08, -2.052054730490361E+08, -5.989675005328225E+07,
2460658.500000000, A.D. 2024-Dec-14 00:00:00.0000, -4.210257063052733E+08, -2.141968564602287E+08, -5.847477654646078E+07,
2460665.500000000, A.D. 2024-Dec-21 00:00:00.0000, -4.163490542968726E+08, -2.230918819912450E+08, -5.702647911589968E+07,
2460672.500000000, A.D. 2024-Dec-28 00:00:00.0000, -4.114847580975786E+08, -2.318864168502561E+08, -5.555247681299119E+07,
2460679.500000000, A.D. 2025-Jan-04 00:00:00.0000, -4.064347724798489E+08, -2.405763647143933E+08, -5.405340221819790E+07,
2460686.500000000, A.D. 2025-Jan-11 00:00:00.0000, -4.012011440612403E+08, -2.491576680629168E+08, -5.252990127494924E+07,
2460693.500000000, A.D. 2025-Jan-18 00:00:00.0000, -3.957860104978428E+08, -2.576263101195635E+08, -5.098263303334111E+07,
2460700.500000000, A.D. 2025-Jan-25 00:00:00.0000, -3.901915998930435E+08, -2.659783168771405E+08, -4.941226936453266E+07,
2460707.500000000, A.D. 2025-Feb-01 00:00:00.0000, -3.844202302316911E+08, -2.742097592332529E+08, -4.781949466567135E+07,
2460714.500000000, A.D. 2025-Feb-08 00:00:00.0000, -3.784743087812374E+08, -2.823167552159311E+08, -4.620500555907577E+07,
$$EOE